[{"CCSDS_OMM_VERS":"2.0","COMMENT":"GENERATED VIA SPACE-TRACK.ORG API","CREATION_DATE":"2021-05-20T03:12:31","ORIGINATOR":"18 SPCS","OBJECT_NAME":"ONEWEB-0220","OBJECT_ID":"2021-031Y","CENTER_NAME":"EARTH","REF_FRAME":"TEME","TIME_SYSTEM":"UTC","MEAN_ELEMENT_THEORY":"SGP4","EPOCH":"2021-05-19T22:00:00.999936","MEAN_MOTION":"15.28323048","ECCENTRICITY":"0.00117530","INCLINATION":"87.4421","RA_OF_ASC_NODE":"304.6359","ARG_OF_PERICENTER":"157.9066","MEAN_ANOMALY":"17.8336","EPHEMERIS_TYPE":"0","CLASSIFICATION_TYPE":"U","NORAD_CAT_ID":"48232","ELEMENT_SET_NO":"999","REV_AT_EPOCH":"177","BSTAR":"-0.04232300000000","MEAN_MOTION_DOT":"-0.01071191","MEAN_MOTION_DDOT":"0.0000000000000","SEMIMAJOR_AXIS":"6858.962","PERIOD":"94.221","APOAPSIS":"488.888","PERIAPSIS":"472.766","OBJECT_TYPE":"PAYLOAD","RCS_SIZE":"MEDIUM","COUNTRY_CODE":"UK","LAUNCH_DATE":"2021-04-25","SITE":"VOSTO","DECAY_DATE":null,"FILE":"3038837","GP_ID":"177526832","TLE_LINE0":"0 ONEWEB-0220","TLE_LINE1":"1 48232U 21031Y   21139.91667824 -.01071191  00000-0 -42323-1 0  9992","TLE_LINE2":"2 48232  87.4421 304.6359 0011753 157.9066  17.8336 15.28323048  1777"},{"CCSDS_OMM_VERS":"2.0","COMMENT":"GENERATED VIA SPACE-TRACK.ORG API","CREATION_DATE":"2021-05-20T14:36:11","ORIGINATOR":"18 SPCS","OBJECT_NAME":"ONEWEB-0220","OBJECT_ID":"2021-031Y","CENTER_NAME":"EARTH","REF_FRAME":"TEME","TIME_SYSTEM":"UTC","MEAN_ELEMENT_THEORY":"SGP4","EPOCH":"2021-05-20T12:00:00.999648","MEAN_MOTION":"15.26981954","ECCENTRICITY":"0.00119100","INCLINATION":"87.4459","RA_OF_ASC_NODE":"304.4363","ARG_OF_PERICENTER":"155.9179","MEAN_ANOMALY":"345.6215","EPHEMERIS_TYPE":"0","CLASSIFICATION_TYPE":"U","NORAD_CAT_ID":"48232","ELEMENT_SET_NO":"999","REV_AT_EPOCH":"377","BSTAR":"-0.04733500000000","MEAN_MOTION_DOT":"-0.01143322","MEAN_MOTION_DDOT":"0.0000000000000","SEMIMAJOR_AXIS":"6862.977","PERIOD":"94.304","APOAPSIS":"493.016","PERIAPSIS":"476.669","OBJECT_TYPE":"PAYLOAD","RCS_SIZE":"MEDIUM","COUNTRY_CODE":"UK","LAUNCH_DATE":"2021-04-25","SITE":"VOSTO","DECAY_DATE":null,"FILE":"3039141","GP_ID":"177534394","TLE_LINE0":"0 ONEWEB-0220","TLE_LINE1":"1 48232U 21031Y   21140.50001157 -.01143322  00000-0 -47335-1 0  9994","TLE_LINE2":"2 48232  87.4459 304.4363 0011910 155.9179 345.6215 15.26981954  3773"},{"CCSDS_OMM_VERS":"2.0","COMMENT":"GENERATED VIA SPACE-TRACK.ORG API","CREATION_DATE":"2021-05-20T22:08:02","ORIGINATOR":"18 SPCS","OBJECT_NAME":"ONEWEB-0220","OBJECT_ID":"2021-031Y","CENTER_NAME":"EARTH","REF_FRAME":"TEME","TIME_SYSTEM":"UTC","MEAN_ELEMENT_THEORY":"SGP4","EPOCH":"2021-05-20T14:00:01.000224","MEAN_MOTION":"15.26779846","ECCENTRICITY":"0.00120100","INCLINATION":"87.4465","RA_OF_ASC_NODE":"304.4072","ARG_OF_PERICENTER":"156.4446","MEAN_ANOMALY":"82.8405","EPHEMERIS_TYPE":"0","CLASSIFICATION_TYPE":"U","NORAD_CAT_ID":"48232","ELEMENT_SET_NO":"999","REV_AT_EPOCH":"176","BSTAR":"-0.04819500000000","MEAN_MOTION_DOT":"-0.01155838","MEAN_MOTION_DDOT":"0.0000000000000","SEMIMAJOR_AXIS":"6863.583","PERIOD":"94.316","APOAPSIS":"493.691","PERIAPSIS":"477.205","OBJECT_TYPE":"PAYLOAD","RCS_SIZE":"MEDIUM","COUNTRY_CODE":"UK","LAUNCH_DATE":"2021-04-25","SITE":"VOSTO","DECAY_DATE":null,"FILE":"3039335","GP_ID":"177560566","TLE_LINE0":"0 ONEWEB-0220","TLE_LINE1":"1 48232U 21031Y   21140.58334491 -.01155838  00000-0 -48195-1 0  9992","TLE_LINE2":"2 48232  87.4465 304.4072 0012010 156.4446  82.8405 15.26779846  1765"},{"CCSDS_OMM_VERS":"2.0","COMMENT":"GENERATED VIA SPACE-TRACK.ORG API","CREATION_DATE":"2021-05-21T04:01:13","ORIGINATOR":"18 SPCS","OBJECT_NAME":"ONEWEB-0220","OBJECT_ID":"2021-031Y","CENTER_NAME":"EARTH","REF_FRAME":"TEME","TIME_SYSTEM":"UTC","MEAN_ELEMENT_THEORY":"SGP4","EPOCH":"2021-05-20T20:00:01.000224","MEAN_MOTION":"15.26133055","ECCENTRICITY":"0.00119800","INCLINATION":"87.4483","RA_OF_ASC_NODE":"304.3210","ARG_OF_PERICENTER":"154.6160","MEAN_ANOMALY":"17.5365","EPHEMERIS_TYPE":"0","CLASSIFICATION_TYPE":"U","NORAD_CAT_ID":"48232","ELEMENT_SET_NO":"999","REV_AT_EPOCH":"177","BSTAR":"-0.04469000000000","MEAN_MOTION_DOT":"-0.01059224","MEAN_MOTION_DDOT":"0.0000000000000","SEMIMAJOR_AXIS":"6865.522","PERIOD":"94.356","APOAPSIS":"495.612","PERIAPSIS":"479.162","OBJECT_TYPE":"PAYLOAD","RCS_SIZE":"MEDIUM","COUNTRY_CODE":"UK","LAUNCH_DATE":"2021-04-25","SITE":"VOSTO","DECAY_DATE":null,"FILE":"3039572","GP_ID":"177588005","TLE_LINE0":"0 ONEWEB-0220","TLE_LINE1":"1 48232U 21031Y   21140.83334491 -.01059224  00000-0 -44690-1 0  9998","TLE_LINE2":"2 48232  87.4483 304.3210 0011980 154.6160  17.5365 15.26133055  1773"},{"CCSDS_OMM_VERS":"2.0","COMMENT":"GENERATED VIA SPACE-TRACK.ORG API","CREATION_DATE":"2021-05-21T20:34:26","ORIGINATOR":"18 SPCS","OBJECT_NAME":"ONEWEB-0220","OBJECT_ID":"2021-031Y","CENTER_NAME":"EARTH","REF_FRAME":"TEME","TIME_SYSTEM":"UTC","MEAN_ELEMENT_THEORY":"SGP4","EPOCH":"2021-05-21T14:00:01.999872","MEAN_MOTION":"15.24395848","ECCENTRICITY":"0.00121100","INCLINATION":"87.4535","RA_OF_ASC_NODE":"304.0651","ARG_OF_PERICENTER":"153.2656","MEAN_ANOMALY":"174.2933","EPHEMERIS_TYPE":"0","CLASSIFICATION_TYPE":"U","NORAD_CAT_ID":"48232","ELEMENT_SET_NO":"999","REV_AT_EPOCH":"178","BSTAR":"-0.05110400000000","MEAN_MOTION_DOT":"-0.01141844","MEAN_MOTION_DDOT":"0.0000000000000","SEMIMAJOR_AXIS":"6870.737","PERIOD":"94.464","APOAPSIS":"500.923","PERIAPSIS":"484.282","OBJECT_TYPE":"PAYLOAD","RCS_SIZE":"MEDIUM","COUNTRY_CODE":"UK","LAUNCH_DATE":"2021-04-25","SITE":"VOSTO","DECAY_DATE":null,"FILE":"3039735","GP_ID":"177614724","TLE_LINE0":"0 ONEWEB-0220","TLE_LINE1":"1 48232U 21031Y   21141.58335648 -.01141844  00000-0 -51104-1 0  9994","TLE_LINE2":"2 48232  87.4535 304.0651 0012110 153.2656 174.2933 15.24395848  1789"},{"CCSDS_OMM_VERS":"2.0","COMMENT":"GENERATED VIA SPACE-TRACK.ORG API","CREATION_DATE":"2021-05-21T22:36:11","ORIGINATOR":"18 SPCS","OBJECT_NAME":"ONEWEB-0220","OBJECT_ID":"2021-031Y","CENTER_NAME":"EARTH","REF_FRAME":"TEME","TIME_SYSTEM":"UTC","MEAN_ELEMENT_THEORY":"SGP4","EPOCH":"2021-05-21T20:00:01.999872","MEAN_MOTION":"15.23758980","ECCENTRICITY":"0.00122750","INCLINATION":"87.4554","RA_OF_ASC_NODE":"303.9794","ARG_OF_PERICENTER":"151.7706","MEAN_ANOMALY":"106.5168","EPHEMERIS_TYPE":"0","CLASSIFICATION_TYPE":"U","NORAD_CAT_ID":"48232","ELEMENT_SET_NO":"999","REV_AT_EPOCH":"397","BSTAR":"-0.04824700000000","MEAN_MOTION_DOT":"-0.01064468","MEAN_MOTION_DDOT":"0.0000000000000","SEMIMAJOR_AXIS":"6872.652","PERIOD":"94.503","APOAPSIS":"502.953","PERIAPSIS":"486.080","OBJECT_TYPE":"PAYLOAD","RCS_SIZE":"MEDIUM","COUNTRY_CODE":"UK","LAUNCH_DATE":"2021-04-25","SITE":"VOSTO","DECAY_DATE":null,"FILE":"3039838","GP_ID":"177617705","TLE_LINE0":"0 ONEWEB-0220","TLE_LINE1":"1 48232U 21031Y   21141.83335648 -.01064468  00000-0 -48247-1 0  9992","TLE_LINE2":"2 48232  87.4554 303.9794 0012275 151.7706 106.5168 15.23758980  3977"},{"CCSDS_OMM_VERS":"2.0","COMMENT":"GENERATED VIA SPACE-TRACK.ORG API","CREATION_DATE":"2021-05-22T03:56:36","ORIGINATOR":"18 SPCS","OBJECT_NAME":"ONEWEB-0220","OBJECT_ID":"2021-031Y","CENTER_NAME":"EARTH","REF_FRAME":"TEME","TIME_SYSTEM":"UTC","MEAN_ELEMENT_THEORY":"SGP4","EPOCH":"2021-05-21T22:00:00.999936","MEAN_MOTION":"15.23561699","ECCENTRICITY":"0.00120770","INCLINATION":"87.4559","RA_OF_ASC_NODE":"303.9510","ARG_OF_PERICENTER":"151.6453","MEAN_ANOMALY":"203.3629","EPHEMERIS_TYPE":"0","CLASSIFICATION_TYPE":"U","NORAD_CAT_ID":"48232","ELEMENT_SET_NO":"999","REV_AT_EPOCH":"178","BSTAR":"-0.04810100000000","MEAN_MOTION_DOT":"-0.01055672","MEAN_MOTION_DDOT":"0.0000000000000","SEMIMAJOR_AXIS":"6873.245","PERIOD":"94.515","APOAPSIS":"503.411","PERIAPSIS":"486.809","OBJECT_TYPE":"PAYLOAD","RCS_SIZE":"MEDIUM","COUNTRY_CODE":"UK","LAUNCH_DATE":"2021-04-25","SITE":"VOSTO","DECAY_DATE":null,"FILE":"3040151","GP_ID":"177646145","TLE_LINE0":"0 ONEWEB-0220","TLE_LINE1":"1 48232U 21031Y   21141.91667824 -.01055672  00000-0 -48101-1 0  9991","TLE_LINE2":"2 48232  87.4559 303.9510 0012077 151.6453 203.3629 15.23561699  1780"},{"CCSDS_OMM_VERS":"2.0","COMMENT":"GENERATED VIA SPACE-TRACK.ORG API","CREATION_DATE":"2021-05-22T08:56:11","ORIGINATOR":"18 SPCS","OBJECT_NAME":"ONEWEB-0220","OBJECT_ID":"2021-031Y","CENTER_NAME":"EARTH","REF_FRAME":"TEME","TIME_SYSTEM":"UTC","MEAN_ELEMENT_THEORY":"SGP4","EPOCH":"2021-05-22T08:00:01.000224","MEAN_MOTION":"15.22567982","ECCENTRICITY":"0.00122360","INCLINATION":"87.4587","RA_OF_ASC_NODE":"303.8110","ARG_OF_PERICENTER":"149.6811","MEAN_ANOMALY":"328.3791","EPHEMERIS_TYPE":"0","CLASSIFICATION_TYPE":"U","NORAD_CAT_ID":"48232","ELEMENT_SET_NO":"999","REV_AT_EPOCH":"405","BSTAR":"-0.04945600000000","MEAN_MOTION_DOT":"-0.01054038","MEAN_MOTION_DDOT":"0.0000000000000","SEMIMAJOR_AXIS":"6876.235","PERIOD":"94.577","APOAPSIS":"506.514","PERIAPSIS":"489.686","OBJECT_TYPE":"PAYLOAD","RCS_SIZE":"MEDIUM","COUNTRY_CODE":"UK","LAUNCH_DATE":"2021-04-25","SITE":"VOSTO","DECAY_DATE":null,"FILE":"3040236","GP_ID":"177648892","TLE_LINE0":"0 ONEWEB-0220","TLE_LINE1":"1 48232U 21031Y   21142.33334491 -.01054038  00000-0 -49456-1 0  9998","TLE_LINE2":"2 48232  87.4587 303.8110 0012236 149.6811 328.3791 15.22567982  4059"}]